[{"OBJECT_NAME":"YAOGAN-30 06B","OBJECT_ID":"2019-045B","EPOCH":"2026-03-09T20:57:59.211936","MEAN_MOTION":15.02091105,"ECCENTRICITY":0.00094792,"INCLINATION":34.9914,"RA_OF_ASC_NODE":214.7206,"ARG_OF_PERICENTER":283.6936,"MEAN_ANOMALY":76.2717,"EPHEMERIS_TYPE":0,"CLASSIFICATION_TYPE":"U","NORAD_CAT_ID":44450,"ELEMENT_SET_NO":999,"REV_AT_EPOCH":36171,"BSTAR":0.00031633807,"MEAN_MOTION_DOT":4.217e-5,"MEAN_MOTION_DDOT":0},{"OBJECT_NAME":"STARLINK-35100","OBJECT_ID":"2025-200Y","EPOCH":"2026-03-09T22:25:40.522656","MEAN_MOTION":15.05646142,"ECCENTRICITY":0.00014193,"INCLINATION":97.6033,"RA_OF_ASC_NODE":139.9791,"ARG_OF_PERICENTER":100.2102,"MEAN_ANOMALY":259.9285,"EPHEMERIS_TYPE":0,"CLASSIFICATION_TYPE":"U","NORAD_CAT_ID":65542,"ELEMENT_SET_NO":999,"REV_AT_EPOCH":2916,"BSTAR":0.00023164554,"MEAN_MOTION_DOT":3.283e-5,"MEAN_MOTION_DDOT":0}]
